#aV2021  4 28  0  0  0.00000000     288 DD+AD WGS84 FIT  NGA
## 2155 259200.00000000   300.00000000 59332 0.0000000000000
+   31     1  2  3  4  5  6  7  8  9 10 12 13 14 15 16 17 18
+         19 20 21 22 23 24 25 26 27 28 29 30 31 32  0  0  0
+          0  0  0  0  0  0  0  0  0  0  0  0  0  0  0  0  0
+          0  0  0  0  0  0  0  0  0  0  0  0  0  0  0  0  0
+          0  0  0  0  0  0  0  0  0  0  0  0  0  0  0  0  0
++         2  2  2  2  2  2  2  2  2  2  2  2  2  2  2  2  2
++         2  2  2  2  2  2  2  2  2  2  2  2  2  2  0  0  0
++         0  0  0  0  0  0  0  0  0  0  0  0  0  0  0  0  0
++         0  0  0  0  0  0  0  0  0  0  0  0  0  0  0  0  0
++         0  0  0  0  0  0  0  0  0  0  0  0  0  0  0  0  0
%c cc cc ccc ccc cccc cccc cccc cccc ccccc ccccc ccccc ccccc
%c cc cc ccc ccc cccc cccc cccc cccc ccccc ccccc ccccc ccccc
%f  0.0000000  0.000000000  0.00000000000  0.000000000000000
%f  0.0000000  0.000000000  0.00000000000  0.000000000000000
%i    0    0    0    0      0      0      0      0         0
%i    0    0    0    0      0      0      0      0         0
/*      NGA, ST. LOUIS,MO.                                  
/*   EPHEMERIS COMPUTED FROM 2 DAYS OF DATA                 
/*   EPOCHA v6 SMOOTHER                                     
/*   G2139 IERS2010 SATIGS SATAPC                           
*  2021  4 28  1 50  0.00000000
P  1   -474.353553  15456.560712 -21798.991672    704.569119                    
V  1 -25801.849588   8189.977153   6782.117071     -0.104118                    
P  2  21139.286576 -14707.155701   7248.127302   -599.510755                    
V  2   8612.560590  -1084.087856 -29998.797013     -0.033235                    
P  3   8772.994973  20615.326841 -14431.283690   -148.873643                    
V  3 -14945.923581 -10418.087791 -23994.122861     -0.104766                    
P  4   -383.309566  25475.466841   7411.081293   -193.911380                    
V  4  -4701.577318   8596.387038 -29878.656743     -0.017414                    
P  5   6974.575500 -13804.930220  21427.651959    -40.334109                    
V  5  21858.038598  16858.050267   3900.470860     -0.011077                    
P  6  25559.018580  -5714.377226  -4556.572639     10.745225                    
V  6  -4853.916486   3809.249165 -31526.611902      0.032335                    
P  7  14510.325103  10257.350101  20230.095565    135.035340                    
V  7 -23205.352089   8836.936839  11886.613435      0.111724                    
P  8  -5630.381587  25723.036974   1768.335220    -19.117487                    
V  8  -2441.707113  -2724.105223  31999.080368     -0.014039                    
P  9   8213.002697  19472.942256  16015.874494   -341.930385                    
V  9  -5512.425697  19828.945236 -21226.061246     -0.025705                    
P 10 -22480.350477  -9735.152644 -10473.139391   -110.845583                    
V 10  -8808.377231 -10274.444457  27882.956404     -0.077092                    
P 12  -4967.243365 -20592.921860 -16368.550562    -33.646552                    
V 12  15383.140531  13205.184693 -21475.383844     -0.051327                    
P 13  13189.615037 -21271.143503   8556.187711    125.228570                    
V 13  -1067.420602  11310.321429  29438.799787      0.046285                    
P 14  22019.084119  10898.108476 -10136.489727     92.276156                    
V 14   7604.055575  10677.383212  28001.622310     -0.038299                    
P 15   2598.105591 -26202.575828    976.609887   -153.186997                    
V 15   4023.593738   1973.387922  31222.625272      0.026032                    
P 16 -11478.533324   9431.604100  21782.502124   -316.497215                    
V 16 -19713.666578 -20163.878284  -1192.963808     -0.059736                    
P 17  14125.607698   3478.329157 -21795.931840    433.499059                    
V 17  -6991.292031  27785.041729    -94.653797      0.062074                    
P 18 -17568.367675  -7604.849058  18429.289699    351.361540                    
V 18  21798.642871  -8550.614791  17182.705031     -0.004280                    
P 19  16110.673972  -5739.918089 -20576.464101     -7.214406                    
V 19  -6541.204744  24620.852190 -12265.186387      0.049977                    
P 20 -10484.687575 -19512.015844  14804.592441    522.741219                    
V 20  17177.675879   8047.176749  22446.313522     -0.003846                    
P 21  -8697.980347  17148.340039 -17397.644990    114.198373                    
V 21 -22608.895250   7481.974114  18420.656684      0.027606                    
P 22    205.515115  17805.024860 -19564.660883   -627.682508                    
V 22 -21517.067275 -13401.404080 -12112.636270      0.090488                    
P 23 -20650.116199 -16744.239579    -88.274257    110.824676                    
V 23   1634.285963  -2146.422037  31784.879121     -0.025685                    
P 24   5304.313617 -17690.325011 -19196.336052     40.978441                    
V 24  22812.435236  -7898.887546  14154.156595      0.278247                    
P 25 -16499.873720 -20061.494442  -6461.103140    126.858167                    
V 25   7498.728946   3234.421415 -30176.227379      0.071830                    
P 26 -18611.934146   2746.782410  18792.926902     78.031685                    
V 26 -17888.208221 -16001.852685 -15064.758783      0.050862                    
P 27 -12159.592410  19872.300579  12225.826369   -120.468014                    
V 27    732.647977 -16056.542457  26810.887766     -0.067130                    
P 28  20874.165074   8586.011655 -13307.692057    580.032853                    
V 28  10801.851407  14390.134217  25391.029282     -0.059809                    
P 29  -6189.409738 -19723.082678  16603.082867   -337.577839                    
V 29   6781.024371 -20073.736634 -21297.155721     -0.065695                    
P 30  24018.088891   1202.466681  11586.203898   -418.755346                    
V 30 -13028.725203   7141.087754  26163.938983     -0.051070                    
P 31 -25819.305507   7055.434344  -1724.100991   -114.119420                    
V 31   1181.095279  -3053.540117 -31259.864574     -0.022089                    
P 32 -15307.287621   -757.543531 -21573.337118     21.919443                    
V 32   4636.110898 -27289.795962  -2486.931759     -0.003083                    
EOF
